{
  "type": "FeatureCollection",
  "features": [
    {
      "type": "Feature",
      "properties": {
        "norad_id": 66424,
        "name": "STARLINK-35588",
        "group": "last-30-days",
        "lat": 41.40842800635321,
        "lon": 153.0802703821436,
        "alt_km": 438.34212302884316,
        "timestamp": "2025-12-06T20:37:54.811999+00:00",
        "meta_object_name": "STARLINK-35588",
        "meta_object_id": "2025-259C",
        "meta_epoch": "2025-12-06T14:00:01.999872",
        "meta_mean_motion": 15.40723929,
        "meta_eccentricity": 0.0001214,
        "meta_inclination": 43.0006,
        "meta_ra_of_asc_node": 83.5257,
        "meta_arg_of_pericenter": 265.6863,
        "meta_mean_anomaly": 75.9479,
        "meta_ephemeris_type": 0,
        "meta_classification_type": "U",
        "meta_norad_cat_id": 66424,
        "meta_element_set_no": 999,
        "meta_rev_at_epoch": 529,
        "meta_bstar": -0.0020542995,
        "meta_mean_motion_dot": -0.00085231,
        "meta_mean_motion_ddot": 0,
        "tle_line1": "1 66424U 25259C   25340.58335648 -.00085231  00000+0 -20543-2 0  9997",
        "tle_line2": "2 66424  43.0006  83.5257 0001214 265.6863  75.9479 15.40723929  5290"
      },
      "geometry": {
        "type": "Point",
        "coordinates": [
          153.0802703821436,
          41.40842800635321
        ]
      }
    },
    {
      "type": "Feature",
      "properties": {
        "norad_id": 66425,
        "name": "STARLINK-35555",
        "group": "last-30-days",
        "lat": 42.959268958777386,
        "lon": 169.71691878510612,
        "alt_km": 438.34799603792635,
        "timestamp": "2025-12-06T20:37:54.812010+00:00",
        "meta_object_name": "STARLINK-35555",
        "meta_object_id": "2025-259D",
        "meta_epoch": "2025-12-06T14:00:01.999872",
        "meta_mean_motion": 15.40631909,
        "meta_eccentricity": 0.0001632,
        "meta_inclination": 43.0003,
        "meta_ra_of_asc_node": 83.4932,
        "meta_arg_of_pericenter": 284.8298,
        "meta_mean_anomaly": 69.2577,
        "meta_ephemeris_type": 0,
        "meta_classification_type": "U",
        "meta_norad_cat_id": 66425,
        "meta_element_set_no": 999,
        "meta_rev_at_epoch": 529,
        "meta_bstar": 0.0019729098,
        "meta_mean_motion_dot": 0.00082822,
        "meta_mean_motion_ddot": 0,
        "tle_line1": "1 66425U 25259D   25340.58335648  .00082822  00000+0  19729-2 0  9993",
        "tle_line2": "2 66425  43.0003  83.4932 0001632 284.8298  69.2577 15.40631909  5297"
      },
      "geometry": {
        "type": "Point",
        "coordinates": [
          169.71691878510612,
          42.959268958777386
        ]
      }
    },
    {
      "type": "Feature",
      "properties": {
        "norad_id": 66426,
        "name": "STARLINK-35589",
        "group": "last-30-days",
        "lat": 42.03572717078913,
        "lon": -173.46879624651032,
        "alt_km": 438.3350795438291,
        "timestamp": "2025-12-06T20:37:54.812020+00:00",
        "meta_object_name": "STARLINK-35589",
        "meta_object_id": "2025-259E",
        "meta_epoch": "2025-12-06T14:00:01.999872",
        "meta_mean_motion": 15.4061884,
        "meta_eccentricity": 0.00013117,
        "meta_inclination": 43.0005,
        "meta_ra_of_asc_node": 83.4639,
        "meta_arg_of_pericenter": 277.1515,
        "meta_mean_anomaly": 89.3657,
        "meta_ephemeris_type": 0,
        "meta_classification_type": "U",
        "meta_norad_cat_id": 66426,
        "meta_element_set_no": 999,
        "meta_rev_at_epoch": 529,
        "meta_bstar": 0.0023913073,
        "meta_mean_motion_dot": 0.00100642,
        "meta_mean_motion_ddot": 0,
        "tle_line1": "1 66426U 25259E   25340.58335648  .00100642  00000+0  23913-2 0  9995",
        "tle_line2": "2 66426  43.0005  83.4639 0001311 277.1515  89.3657 15.40618840  5296"
      },
      "geometry": {
        "type": "Point",
        "coordinates": [
          -173.46879624651032,
          42.03572717078913
        ]
      }
    },
    {
      "type": "Feature",
      "properties": {
        "norad_id": 66427,
        "name": "STARLINK-35611",
        "group": "last-30-days",
        "lat": 38.788792968857464,
        "lon": -157.7531878555506,
        "alt_km": 439.38811467161395,
        "timestamp": "2025-12-06T20:37:54.812031+00:00",
        "meta_object_name": "STARLINK-35611",
        "meta_object_id": "2025-259F",
        "meta_epoch": "2025-12-06T14:00:01.999872",
        "meta_mean_motion": 15.40581762,
        "meta_eccentricity": 0.0002004,
        "meta_inclination": 43.0004,
        "meta_ra_of_asc_node": 83.4332,
        "meta_arg_of_pericenter": 306.0138,
        "meta_mean_anomaly": 72.9203,
        "meta_ephemeris_type": 0,
        "meta_classification_type": "U",
        "meta_norad_cat_id": 66427,
        "meta_element_set_no": 999,
        "meta_rev_at_epoch": 529,
        "meta_bstar": 0.0022234866,
        "meta_mean_motion_dot": 0.00093355,
        "meta_mean_motion_ddot": 0,
        "tle_line1": "1 66427U 25259F   25340.58335648  .00093355  00000+0  22235-2 0  9994",
        "tle_line2": "2 66427  43.0004  83.4332 0002004 306.0138  72.9203 15.40581762  5296"
      },
      "geometry": {
        "type": "Point",
        "coordinates": [
          -157.7531878555506,
          38.788792968857464
        ]
      }
    },
    {
      "type": "Feature",
      "properties": {
        "norad_id": 66428,
        "name": "STARLINK-35610",
        "group": "last-30-days",
        "lat": 33.573141390435396,
        "lon": -143.60816567215045,
        "alt_km": 439.5473377976241,
        "timestamp": "2025-12-06T20:37:54.812046+00:00",
        "meta_object_name": "STARLINK-35610",
        "meta_object_id": "2025-259G",
        "meta_epoch": "2025-12-06T14:00:01.999872",
        "meta_mean_motion": 15.41333146,
        "meta_eccentricity": 0.00018948,
        "meta_inclination": 43.0005,
        "meta_ra_of_asc_node": 83.4034,
        "meta_arg_of_pericenter": 265.9792,
        "meta_mean_anomaly": 125.0797,
        "meta_ephemeris_type": 0,
        "meta_classification_type": "U",
        "meta_norad_cat_id": 66428,
        "meta_element_set_no": 999,
        "meta_rev_at_epoch": 529,
        "meta_bstar": -0.024797874,
        "meta_mean_motion_dot": -0.00966725,
        "meta_mean_motion_ddot": 0,
        "tle_line1": "1 66428U 25259G   25340.58335648 -.00966725  00000+0 -24798-1 0  9992",
        "tle_line2": "2 66428  43.0005  83.4034 0001894 265.9792 125.0797 15.41333146  5292"
      },
      "geometry": {
        "type": "Point",
        "coordinates": [
          -143.60816567215045,
          33.573141390435396
        ]
      }
    },
    {
      "type": "Feature",
      "properties": {
        "norad_id": 66429,
        "name": "STARLINK-35533",
        "group": "last-30-days",
        "lat": 27.23825903147993,
        "lon": -131.75206360121982,
        "alt_km": 437.1670376037282,
        "timestamp": "2025-12-06T20:37:54.812056+00:00",
        "meta_object_name": "STARLINK-35533",
        "meta_object_id": "2025-259H",
        "meta_epoch": "2025-12-06T14:00:01.999872",
        "meta_mean_motion": 15.43255721,
        "meta_eccentricity": 0.00011822,
        "meta_inclination": 43.0007,
        "meta_ra_of_asc_node": 83.3772,
        "meta_arg_of_pericenter": 287.0124,
        "meta_mean_anomaly": 114.5826,
        "meta_ephemeris_type": 0,
        "meta_classification_type": "U",
        "meta_norad_cat_id": 66429,
        "meta_element_set_no": 999,
        "meta_rev_at_epoch": 529,
        "meta_bstar": -0.058976296,
        "meta_mean_motion_dot": -0.02387464,
        "meta_mean_motion_ddot": 0,
        "tle_line1": "1 66429U 25259H   25340.58335648 -.02387464  00000+0 -58976-1 0  9997",
        "tle_line2": "2 66429  43.0007  83.3772 0001182 287.0124 114.5826 15.43255721  5297"
      },
      "geometry": {
        "type": "Point",
        "coordinates": [
          -131.75206360121982,
          27.23825903147993
        ]
      }
    },
    {
      "type": "Feature",
      "properties": {
        "norad_id": 66430,
        "name": "STARLINK-35470",
        "group": "last-30-days",
        "lat": 20.96554191217759,
        "lon": -122.52395984317477,
        "alt_km": 434.35378958668207,
        "timestamp": "2025-12-06T20:37:54.812067+00:00",
        "meta_object_name": "STARLINK-35470",
        "meta_object_id": "2025-259J",
        "meta_epoch": "2025-12-06T14:00:01.999872",
        "meta_mean_motion": 15.44348002,
        "meta_eccentricity": 0.00014285,
        "meta_inclination": 43.0009,
        "meta_ra_of_asc_node": 83.3551,
        "meta_arg_of_pericenter": 283.7154,
        "meta_mean_anomaly": 127.1977,
        "meta_ephemeris_type": 0,
        "meta_classification_type": "U",
        "meta_norad_cat_id": 66430,
        "meta_element_set_no": 999,
        "meta_rev_at_epoch": 529,
        "meta_bstar": -0.04874752,
        "meta_mean_motion_dot": -0.02046589,
        "meta_mean_motion_ddot": 0,
        "tle_line1": "1 66430U 25259J   25340.58335648 -.02046589  00000+0 -48748-1 0  9995",
        "tle_line2": "2 66430  43.0009  83.3551 0001428 283.7154 127.1977 15.44348002  5298"
      },
      "geometry": {
        "type": "Point",
        "coordinates": [
          -122.52395984317477,
          20.96554191217759
        ]
      }
    }
  ]
}